[{"OBJECT_NAME":"STARLINK-36994","OBJECT_ID":"2026-039M","EPOCH":"2026-03-12T16:00:01.999584","MEAN_MOTION":15.81925276,"ECCENTRICITY":0.0002466,"INCLINATION":42.9996,"RA_OF_ASC_NODE":36.562,"ARG_OF_PERICENTER":275.7807,"MEAN_ANOMALY":236.2457,"EPHEMERIS_TYPE":0,"CLASSIFICATION_TYPE":"U","NORAD_CAT_ID":67997,"ELEMENT_SET_NO":999,"REV_AT_EPOCH":335,"BSTAR":0.00063497,"MEAN_MOTION_DOT":0.00134703,"MEAN_MOTION_DDOT":0},{"OBJECT_NAME":"STARLINK-36988","OBJECT_ID":"2026-039N","EPOCH":"2026-03-12T16:00:01.999584","MEAN_MOTION":15.81985399,"ECCENTRICITY":0.0002083,"INCLINATION":42.9996,"RA_OF_ASC_NODE":36.5725,"ARG_OF_PERICENTER":270.446,"MEAN_ANOMALY":237.2952,"EPHEMERIS_TYPE":0,"CLASSIFICATION_TYPE":"U","NORAD_CAT_ID":67998,"ELEMENT_SET_NO":999,"REV_AT_EPOCH":335,"BSTAR":0.00013217,"MEAN_MOTION_DOT":0.00027345,"MEAN_MOTION_DDOT":0},{"OBJECT_NAME":"STARLINK-36926","OBJECT_ID":"2026-039P","EPOCH":"2026-03-12T16:00:01.999584","MEAN_MOTION":15.81976604,"ECCENTRICITY":0.0002081,"INCLINATION":42.9997,"RA_OF_ASC_NODE":36.5519,"ARG_OF_PERICENTER":258.8006,"MEAN_ANOMALY":257.4891,"EPHEMERIS_TYPE":0,"CLASSIFICATION_TYPE":"U","NORAD_CAT_ID":67999,"ELEMENT_SET_NO":999,"REV_AT_EPOCH":335,"BSTAR":0.00020186,"MEAN_MOTION_DOT":0.00042101,"MEAN_MOTION_DDOT":0},{"OBJECT_NAME":"STARLINK-36931","OBJECT_ID":"2026-039Q","EPOCH":"2026-03-12T16:00:01.999584","MEAN_MOTION":15.8198028,"ECCENTRICITY":0.0001643,"INCLINATION":42.9994,"RA_OF_ASC_NODE":36.5411,"ARG_OF_PERICENTER":282.2684,"MEAN_ANOMALY":238.292,"EPHEMERIS_TYPE":0,"CLASSIFICATION_TYPE":"U","NORAD_CAT_ID":68000,"ELEMENT_SET_NO":999,"REV_AT_EPOCH":335,"BSTAR":0.00016298,"MEAN_MOTION_DOT":0.00033862,"MEAN_MOTION_DDOT":0},{"OBJECT_NAME":"STARLINK-36903","OBJECT_ID":"2026-039R","EPOCH":"2026-03-12T16:00:01.999584","MEAN_MOTION":15.81968858,"ECCENTRICITY":0.0001779,"INCLINATION":42.9997,"RA_OF_ASC_NODE":36.5297,"ARG_OF_PERICENTER":288.1197,"MEAN_ANOMALY":236.7242,"EPHEMERIS_TYPE":0,"CLASSIFICATION_TYPE":"U","NORAD_CAT_ID":68001,"ELEMENT_SET_NO":999,"REV_AT_EPOCH":335,"BSTAR":0.00019594,"MEAN_MOTION_DOT":0.00040828,"MEAN_MOTION_DDOT":0},{"OBJECT_NAME":"STARLINK-36898","OBJECT_ID":"2026-039S","EPOCH":"2026-03-12T16:00:01.999584","MEAN_MOTION":15.82002034,"ECCENTRICITY":0.0001833,"INCLINATION":42.9998,"RA_OF_ASC_NODE":36.5079,"ARG_OF_PERICENTER":251.7802,"MEAN_ANOMALY":281.6066,"EPHEMERIS_TYPE":0,"CLASSIFICATION_TYPE":"U","NORAD_CAT_ID":68002,"ELEMENT_SET_NO":999,"REV_AT_EPOCH":335,"BSTAR":-9.7303e-5,"MEAN_MOTION_DOT":-0.0002096,"MEAN_MOTION_DDOT":0},{"OBJECT_NAME":"STARLINK-36862","OBJECT_ID":"2026-039T","EPOCH":"2026-03-12T16:00:01.999584","MEAN_MOTION":15.82020027,"ECCENTRICITY":0.0001711,"INCLINATION":42.9997,"RA_OF_ASC_NODE":36.4867,"ARG_OF_PERICENTER":264.9015,"MEAN_ANOMALY":277.0149,"EPHEMERIS_TYPE":0,"CLASSIFICATION_TYPE":"U","NORAD_CAT_ID":68003,"ELEMENT_SET_NO":999,"REV_AT_EPOCH":335,"BSTAR":-0.00016169,"MEAN_MOTION_DOT":-0.00034451,"MEAN_MOTION_DDOT":0},{"OBJECT_NAME":"STARLINK-36888","OBJECT_ID":"2026-039U","EPOCH":"2026-03-12T16:00:01.999584","MEAN_MOTION":15.81989869,"ECCENTRICITY":0.0001994,"INCLINATION":42.9996,"RA_OF_ASC_NODE":36.519,"ARG_OF_PERICENTER":285.0854,"MEAN_ANOMALY":244.0215,"EPHEMERIS_TYPE":0,"CLASSIFICATION_TYPE":"U","NORAD_CAT_ID":68004,"ELEMENT_SET_NO":999,"REV_AT_EPOCH":335,"BSTAR":7.7193e-5,"MEAN_MOTION_DOT":0.00015731,"MEAN_MOTION_DDOT":0},{"OBJECT_NAME":"STARLINK-36910","OBJECT_ID":"2026-039V","EPOCH":"2026-03-12T16:00:01.999584","MEAN_MOTION":15.81969885,"ECCENTRICITY":0.0001648,"INCLINATION":43,"RA_OF_ASC_NODE":36.4979,"ARG_OF_PERICENTER":274.8651,"MEAN_ANOMALY":262.799,"EPHEMERIS_TYPE":0,"CLASSIFICATION_TYPE":"U","NORAD_CAT_ID":68005,"ELEMENT_SET_NO":999,"REV_AT_EPOCH":335,"BSTAR":0.00019498,"MEAN_MOTION_DOT":0.00040627,"MEAN_MOTION_DDOT":0},{"OBJECT_NAME":"STARLINK-36889","OBJECT_ID":"2026-039W","EPOCH":"2026-03-12T16:00:01.999584","MEAN_MOTION":15.8201335,"ECCENTRICITY":0.0001747,"INCLINATION":43,"RA_OF_ASC_NODE":36.4749,"ARG_OF_PERICENTER":256.4559,"MEAN_ANOMALY":289.7388,"EPHEMERIS_TYPE":0,"CLASSIFICATION_TYPE":"U","NORAD_CAT_ID":68006,"ELEMENT_SET_NO":999,"REV_AT_EPOCH":335,"BSTAR":-0.0002052,"MEAN_MOTION_DOT":-0.0004352,"MEAN_MOTION_DDOT":0},{"OBJECT_NAME":"STARLINK-36592","OBJECT_ID":"2026-039X","EPOCH":"2026-03-12T16:00:01.999584","MEAN_MOTION":15.81937556,"ECCENTRICITY":0.0001127,"INCLINATION":42.9997,"RA_OF_ASC_NODE":36.4646,"ARG_OF_PERICENTER":278.2997,"MEAN_ANOMALY":272.3143,"EPHEMERIS_TYPE":0,"CLASSIFICATION_TYPE":"U","NORAD_CAT_ID":68007,"ELEMENT_SET_NO":999,"REV_AT_EPOCH":335,"BSTAR":-0.00019844,"MEAN_MOTION_DOT":-0.00041959,"MEAN_MOTION_DDOT":0},{"OBJECT_NAME":"STARLINK-36911","OBJECT_ID":"2026-039Y","EPOCH":"2026-03-12T16:00:01.999584","MEAN_MOTION":15.81974315,"ECCENTRICITY":0.0001418,"INCLINATION":42.9995,"RA_OF_ASC_NODE":36.4544,"ARG_OF_PERICENTER":257.0473,"MEAN_ANOMALY":297.7116,"EPHEMERIS_TYPE":0,"CLASSIFICATION_TYPE":"U","NORAD_CAT_ID":68008,"ELEMENT_SET_NO":999,"REV_AT_EPOCH":335,"BSTAR":0.00013536,"MEAN_MOTION_DOT":0.00028006,"MEAN_MOTION_DDOT":0},{"OBJECT_NAME":"STARLINK-36956","OBJECT_ID":"2026-039Z","EPOCH":"2026-03-12T16:00:01.999584","MEAN_MOTION":15.81994981,"ECCENTRICITY":0.0001788,"INCLINATION":42.9997,"RA_OF_ASC_NODE":36.4427,"ARG_OF_PERICENTER":253.1963,"MEAN_ANOMALY":305.8263,"EPHEMERIS_TYPE":0,"CLASSIFICATION_TYPE":"U","NORAD_CAT_ID":68009,"ELEMENT_SET_NO":999,"REV_AT_EPOCH":335,"BSTAR":-5.0367e-5,"MEAN_MOTION_DOT":-0.00011115,"MEAN_MOTION_DDOT":0},{"OBJECT_NAME":"STARLINK-36953","OBJECT_ID":"2026-039AA","EPOCH":"2026-03-12T16:00:01.999584","MEAN_MOTION":15.81987118,"ECCENTRICITY":0.0001778,"INCLINATION":43.0001,"RA_OF_ASC_NODE":36.4208,"ARG_OF_PERICENTER":271.2489,"MEAN_ANOMALY":296.3207,"EPHEMERIS_TYPE":0,"CLASSIFICATION_TYPE":"U","NORAD_CAT_ID":68010,"ELEMENT_SET_NO":999,"REV_AT_EPOCH":335,"BSTAR":5.4021e-5,"MEAN_MOTION_DOT":0.00010841,"MEAN_MOTION_DDOT":0},{"OBJECT_NAME":"STARLINK-36991","OBJECT_ID":"2026-039AB","EPOCH":"2026-03-12T16:00:01.999584","MEAN_MOTION":15.7604098,"ECCENTRICITY":0.0001379,"INCLINATION":42.9997,"RA_OF_ASC_NODE":36.4483,"ARG_OF_PERICENTER":261.7364,"MEAN_ANOMALY":294.6364,"EPHEMERIS_TYPE":0,"CLASSIFICATION_TYPE":"U","NORAD_CAT_ID":68011,"ELEMENT_SET_NO":999,"REV_AT_EPOCH":335,"BSTAR":-0.013809,"MEAN_MOTION_DOT":-0.0192479,"MEAN_MOTION_DDOT":0},{"OBJECT_NAME":"STARLINK-36936","OBJECT_ID":"2026-039AC","EPOCH":"2026-03-12T16:00:01.999584","MEAN_MOTION":15.81979614,"ECCENTRICITY":0.0001728,"INCLINATION":42.9999,"RA_OF_ASC_NODE":36.3884,"ARG_OF_PERICENTER":277.758,"MEAN_ANOMALY":302.6202,"EPHEMERIS_TYPE":0,"CLASSIFICATION_TYPE":"U","NORAD_CAT_ID":68012,"ELEMENT_SET_NO":999,"REV_AT_EPOCH":335,"BSTAR":0.00016057,"MEAN_MOTION_DOT":0.0003335,"MEAN_MOTION_DDOT":0}]
