STARLINK-36994          
1 67997U 26039M   26071.66668981  .00134703  00000+0  63497-3 0  9993
2 67997  42.9996  36.5620 0002466 275.7807 236.2457 15.81925276  3351
STARLINK-36988          
1 67998U 26039N   26071.66668981  .00027345  00000+0  13217-3 0  9992
2 67998  42.9996  36.5725 0002083 270.4460 237.2952 15.81985399  3353
STARLINK-36926          
1 67999U 26039P   26071.66668981  .00042101  00000+0  20186-3 0  9993
2 67999  42.9997  36.5519 0002081 258.8006 257.4891 15.81976604  3355
STARLINK-36931          
1 68000U 26039Q   26071.66668981  .00033862  00000+0  16298-3 0  9990
2 68000  42.9994  36.5411 0001643 282.2684 238.2920 15.81980280  3358
STARLINK-36903          
1 68001U 26039R   26071.66668981  .00040828  00000+0  19594-3 0  9993
2 68001  42.9997  36.5297 0001779 288.1197 236.7242 15.81968858  3355
STARLINK-36898          
1 68002U 26039S   26071.66668981 -.00020960  00000+0 -97303-4 0  9996
2 68002  42.9998  36.5079 0001833 251.7802 281.6066 15.82002034  3354
STARLINK-36862          
1 68003U 26039T   26071.66668981 -.00034451  00000+0 -16169-3 0  9997
2 68003  42.9997  36.4867 0001711 264.9015 277.0149 15.82020027  3358
STARLINK-36888          
1 68004U 26039U   26071.66668981  .00015731  00000+0  77193-4 0  9991
2 68004  42.9996  36.5190 0001994 285.0854 244.0215 15.81989869  3351
STARLINK-36910          
1 68005U 26039V   26071.66668981  .00040627  00000+0  19498-3 0  9997
2 68005  43.0000  36.4979 0001648 274.8651 262.7990 15.81969885  3354
STARLINK-36889          
1 68006U 26039W   26071.66668981 -.00043520  00000+0 -20520-3 0  9993
2 68006  43.0000  36.4749 0001747 256.4559 289.7388 15.82013350  3351
STARLINK-36592          
1 68007U 26039X   26071.66668981 -.00041959  00000+0 -19844-3 0  9995
2 68007  42.9997  36.4646 0001127 278.2997 272.3143 15.81937556  3350
STARLINK-36911          
1 68008U 26039Y   26071.66668981  .00028006  00000+0  13536-3 0  9994
2 68008  42.9995  36.4544 0001418 257.0473 297.7116 15.81974315  3358
STARLINK-36956          
1 68009U 26039Z   26071.66668981 -.00011115  00000+0 -50367-4 0  9994
2 68009  42.9997  36.4427 0001788 253.1963 305.8263 15.81994981  3357
STARLINK-36953          
1 68010U 26039AA  26071.66668981  .00010841  00000+0  54021-4 0  9990
2 68010  43.0001  36.4208 0001778 271.2489 296.3207 15.81987118  3353
STARLINK-36991          
1 68011U 26039AB  26071.66668981 -.01924790  00000+0 -13809-1 0  9997
2 68011  42.9997  36.4483 0001379 261.7364 294.6364 15.76040980  3350
STARLINK-36936          
1 68012U 26039AC  26071.66668981  .00033350  00000+0  16057-3 0  9998
2 68012  42.9999  36.3884 0001728 277.7580 302.6202 15.81979614  3354
